0 IRIDIUM 33 DEB
1 35735U 97051RN  13282.26078358  .00005238  00000-0  12264-2 0  4417
2 35735 086.3964 117.0717 0026993 342.2119 017.8226 14.54221115229573
0 IRIDIUM 33 DEB
1 35735U 97051RN  13283.29291922  .00005402  00000-0  12653-2 0  4421
2 35735 086.4001 116.6224 0025624 337.1179 022.9334 14.54234407229725
0 IRIDIUM 33 DEB
1 35735U 97051RN  13285.28834925  .00005699  00000-0  13350-2 0  4432
2 35735 086.4044 115.7632 0023943 328.1398 031.9129 14.54261010230016
0 IRIDIUM 33 DEB
1 35735U 97051RN  13286.80209225  .00006092  00000-0  14247-2 0  4445
2 35735 086.3979 115.1024 0027682 320.8027 039.2135 14.54285158230234
0 IRIDIUM 33 DEB
1 35735U 97051RN  13287.28371255  .00006233  00000-0  14580-2 0  4459
2 35735 086.4037 114.8929 0026962 317.9141 042.0151 14.54293588230308
0 IRIDIUM 33 DEB
1 35735U 97051RN  13288.24699014  .00006489  00000-0  15187-2 0  4460
2 35735 086.4103 114.4721 0024701 311.5917 048.3986 14.54310186230442
0 IRIDIUM 33 DEB
1 35735U 97051RN  13289.27904623  .00006734  00000-0  15747-2 0  4475
2 35735 086.4097 114.0253 0026163 309.9753 049.9389 14.54327568230595
0 IRIDIUM 33 DEB
1 35735U 97051RN  13290.24229997  .00007067  00000-0  16527-2 0  4486
2 35735 086.4096 113.6085 0024974 307.0979 052.8490 14.54345640230732
0 IRIDIUM 33 DEB
1 35735U 97051RN  13290.79271707  .00008012  00000-0  18694-2 0  4503
2 35735 086.3703 113.4080 0030733 325.6319 034.1841 14.54363065230816
0 IRIDIUM 33 DEB
1 35735U 97051RN  13291.82476757  .00008127  00000-0  18958-2 0  4511
2 35735 086.3752 112.9589 0030428 321.8159 038.0969 14.54381565230964
0 IRIDIUM 33 DEB
1 35735U 97051RN  13293.20079222  .00008365  00000-0  19539-2 0  4522
2 35735 086.3916 112.3558 0025632 306.7123 053.3051 14.54408040231163
0 IRIDIUM 33 DEB
1 35735U 97051RN  13295.19595948  .00008757  00000-0  20447-2 0  4536
2 35735 086.3920 111.4917 0024426 298.5204 061.4293 14.54448028231455
